#Pass ID: 20250121_165813_METOP-C
#Satellite: METOP-C
#Configuration: METOP-C
#Start time: 2025-01-21 16:58:18.828810

#LorettStation: 1.0.0 05.05.2024
#Station: Regia
#Location: 37.494653 lon 55.929028 lat
#TLE: 1 43689U 18087A   25020.57173101  .00000310  00000+0  16150-3 0  9997
#TLE: 2 43689  98.6957  82.9807 0001671 154.1827 205.9434 14.21484967322003

#Time	Az	El	Level	SNR
#Closed at: 2025-01-21 16:58:13.825927